[{"OBJECT_NAME":"ONEWEB-0634","OBJECT_ID":"2023-043AF","EPOCH":"2026-03-09T23:17:00.385440","MEAN_MOTION":13.15547737,"ECCENTRICITY":0.00018498,"INCLINATION":87.8937,"RA_OF_ASC_NODE":279.0418,"ARG_OF_PERICENTER":81.7041,"MEAN_ANOMALY":278.4299,"EPHEMERIS_TYPE":0,"CLASSIFICATION_TYPE":"U","NORAD_CAT_ID":56075,"ELEMENT_SET_NO":999,"REV_AT_EPOCH":14335,"BSTAR":0.00013013715,"MEAN_MOTION_DOT":6.2e-7,"MEAN_MOTION_DDOT":0},{"OBJECT_NAME":"CZ-4C R\/B","OBJECT_ID":"2015-040B","EPOCH":"2026-03-09T21:49:55.503552","MEAN_MOTION":13.33324518,"ECCENTRICITY":0.00928391,"INCLINATION":100.553,"RA_OF_ASC_NODE":233.3707,"ARG_OF_PERICENTER":320.1061,"MEAN_ANOMALY":39.3263,"EPHEMERIS_TYPE":0,"CLASSIFICATION_TYPE":"U","NORAD_CAT_ID":40879,"ELEMENT_SET_NO":999,"REV_AT_EPOCH":51273,"BSTAR":3.4630217e-5,"MEAN_MOTION_DOT":-3.1e-7,"MEAN_MOTION_DDOT":0}]
